STARLINK-36800          
1 67797U 26032A   26076.44389694  .00273887  00000+0  17708-2 0  9996
2 67797  97.2833 263.3076 0001945  54.8365 305.3083 15.75295364  6002
STARLINK-36798          
1 67798U 26032B   26076.42766525  .00321198  00000+0  20636-2 0  9990
2 67798  97.2822 263.3287 0001633  81.9412 278.2038 15.75309662  6008
STARLINK-36804          
1 67799U 26032C   26076.50566035  .00146004  00000+0  96168-3 0  9999
2 67799  97.2818 263.3744 0001712  24.7453 335.3894 15.75223761  6011
STARLINK-36354          
1 67800U 26032D   26076.49472042  .00120253  00000+0  79485-3 0  9995
2 67800  97.2818 263.3921 0000666  49.8303 310.3020 15.75217873  6011
STARLINK-36773          
1 67801U 26032E   26076.50248499  .00102646  00000+0  67980-3 0  9998
2 67801  97.2835 263.3799 0001904  92.5761 267.5722 15.75223552  6016
STARLINK-36739          
1 67802U 26032F   26076.42060884  .00244094  00000+0  15853-2 0  9995
2 67802  97.2830 263.3389 0001784  72.3319 287.8141 15.75273525  6002
STARLINK-36768          
1 67803U 26032G   26076.43295820  .00174381  00000+0  11433-2 0  9998
2 67803  97.2822 263.3207 0001716  72.4294 287.7159 15.75250430  6009
STARLINK-36792          
1 67804U 26032H   26076.43542906  .00170380  00000+0  11180-2 0  9993
2 67804  97.2831 263.3179 0001586  84.7880 275.3567 15.75241538  6005
STARLINK-36782          
1 67805U 26032J   26076.47425326  .00177403  00000+0  11642-2 0  9990
2 67805  97.2827 263.4185 0000929   0.4091 359.7175 15.75220756  6010
STARLINK-36389          
1 67806U 26032K   26076.48766142  .00118158  00000+0  78156-3 0  9992
2 67806  97.2816 263.3984 0001627  65.9338 294.2097 15.75206737  6010
STARLINK-36382          
1 67807U 26032L   26076.48554544  .00124707  00000+0  82404-3 0  9992
2 67807  97.2820 263.4007 0001930  79.9725 280.1758 15.75210603  6010
STARLINK-36811          
1 67808U 26032M   26076.47567049  .00148627  00000+0  98029-3 0  9993
2 67808  97.2833 263.4165 0000916 358.4836   1.6426 15.75185288  6019
