CCSDS_OMM_VERS = 2.0
CREATION_DATE  = 
ORIGINATOR     = 

OBJECT_NAME    = STARLINK-36800
OBJECT_ID      = 2026-032A
CENTER_NAME    = EARTH
REF_FRAME      = TEME
TIME_SYSTEM    = UTC
MEAN_ELEMENT_THEORY = SGP/SGP4

EPOCH          = 2026-03-17T10:39:12.695616
MEAN_MOTION    = 15.75295364
ECCENTRICITY   = .00019459
INCLINATION    = 97.2833
RA_OF_ASC_NODE = 263.3076
ARG_OF_PERICENTER = 54.8365
MEAN_ANOMALY   = 305.3083

EPHEMERIS_TYPE = 0
CLASSIFICATION_TYPE = U
NORAD_CAT_ID   = 67797
ELEMENT_SET_NO = 999
REV_AT_EPOCH   = 600
BSTAR          = .17707708E-2
MEAN_MOTION_DOT = .273887E-2
MEAN_MOTION_DDOT = 0

CCSDS_OMM_VERS = 2.0
CREATION_DATE  = 
ORIGINATOR     = 

OBJECT_NAME    = STARLINK-36798
OBJECT_ID      = 2026-032B
CENTER_NAME    = EARTH
REF_FRAME      = TEME
TIME_SYSTEM    = UTC
MEAN_ELEMENT_THEORY = SGP/SGP4

EPOCH          = 2026-03-17T10:15:50.277600
MEAN_MOTION    = 15.75309662
ECCENTRICITY   = .00016331
INCLINATION    = 97.2822
RA_OF_ASC_NODE = 263.3287
ARG_OF_PERICENTER = 81.9412
MEAN_ANOMALY   = 278.2038

EPHEMERIS_TYPE = 0
CLASSIFICATION_TYPE = U
NORAD_CAT_ID   = 67798
ELEMENT_SET_NO = 999
REV_AT_EPOCH   = 600
BSTAR          = .20636499E-2
MEAN_MOTION_DOT = .321198E-2
MEAN_MOTION_DDOT = 0

CCSDS_OMM_VERS = 2.0
CREATION_DATE  = 
ORIGINATOR     = 

OBJECT_NAME    = STARLINK-36804
OBJECT_ID      = 2026-032C
CENTER_NAME    = EARTH
REF_FRAME      = TEME
TIME_SYSTEM    = UTC
MEAN_ELEMENT_THEORY = SGP/SGP4

EPOCH          = 2026-03-17T12:08:09.054240
MEAN_MOTION    = 15.75223761
ECCENTRICITY   = .00017127
INCLINATION    = 97.2818
RA_OF_ASC_NODE = 263.3744
ARG_OF_PERICENTER = 24.7453
MEAN_ANOMALY   = 335.3894

EPHEMERIS_TYPE = 0
CLASSIFICATION_TYPE = U
NORAD_CAT_ID   = 67799
ELEMENT_SET_NO = 999
REV_AT_EPOCH   = 601
BSTAR          = .96167936E-3
MEAN_MOTION_DOT = .146004E-2
MEAN_MOTION_DDOT = 0

CCSDS_OMM_VERS = 2.0
CREATION_DATE  = 
ORIGINATOR     = 

OBJECT_NAME    = STARLINK-36354
OBJECT_ID      = 2026-032D
CENTER_NAME    = EARTH
REF_FRAME      = TEME
TIME_SYSTEM    = UTC
MEAN_ELEMENT_THEORY = SGP/SGP4

EPOCH          = 2026-03-17T11:52:23.844288
MEAN_MOTION    = 15.75217873
ECCENTRICITY   = .0000666
INCLINATION    = 97.2818
RA_OF_ASC_NODE = 263.3921
ARG_OF_PERICENTER = 49.8303
MEAN_ANOMALY   = 310.3020

EPHEMERIS_TYPE = 0
CLASSIFICATION_TYPE = U
NORAD_CAT_ID   = 67800
ELEMENT_SET_NO = 999
REV_AT_EPOCH   = 601
BSTAR          = .7948481E-3
MEAN_MOTION_DOT = .120253E-2
MEAN_MOTION_DDOT = 0

CCSDS_OMM_VERS = 2.0
CREATION_DATE  = 
ORIGINATOR     = 

OBJECT_NAME    = STARLINK-36773
OBJECT_ID      = 2026-032E
CENTER_NAME    = EARTH
REF_FRAME      = TEME
TIME_SYSTEM    = UTC
MEAN_ELEMENT_THEORY = SGP/SGP4

EPOCH          = 2026-03-17T12:03:34.703136
MEAN_MOTION    = 15.75223552
ECCENTRICITY   = .00019044
INCLINATION    = 97.2835
RA_OF_ASC_NODE = 263.3799
ARG_OF_PERICENTER = 92.5761
MEAN_ANOMALY   = 267.5722

EPHEMERIS_TYPE = 0
CLASSIFICATION_TYPE = U
NORAD_CAT_ID   = 67801
ELEMENT_SET_NO = 999
REV_AT_EPOCH   = 601
BSTAR          = .67980192E-3
MEAN_MOTION_DOT = .102646E-2
MEAN_MOTION_DDOT = 0

CCSDS_OMM_VERS = 2.0
CREATION_DATE  = 
ORIGINATOR     = 

OBJECT_NAME    = STARLINK-36739
OBJECT_ID      = 2026-032F
CENTER_NAME    = EARTH
REF_FRAME      = TEME
TIME_SYSTEM    = UTC
MEAN_ELEMENT_THEORY = SGP/SGP4

EPOCH          = 2026-03-17T10:05:40.603776
MEAN_MOTION    = 15.75273525
ECCENTRICITY   = .00017844
INCLINATION    = 97.2830
RA_OF_ASC_NODE = 263.3389
ARG_OF_PERICENTER = 72.3319
MEAN_ANOMALY   = 287.8141

EPHEMERIS_TYPE = 0
CLASSIFICATION_TYPE = U
NORAD_CAT_ID   = 67802
ELEMENT_SET_NO = 999
REV_AT_EPOCH   = 600
BSTAR          = .15853065E-2
MEAN_MOTION_DOT = .244094E-2
MEAN_MOTION_DDOT = 0

CCSDS_OMM_VERS = 2.0
CREATION_DATE  = 
ORIGINATOR     = 

OBJECT_NAME    = STARLINK-36768
OBJECT_ID      = 2026-032G
CENTER_NAME    = EARTH
REF_FRAME      = TEME
TIME_SYSTEM    = UTC
MEAN_ELEMENT_THEORY = SGP/SGP4

EPOCH          = 2026-03-17T10:23:27.588480
MEAN_MOTION    = 15.75250430
ECCENTRICITY   = .00017168
INCLINATION    = 97.2822
RA_OF_ASC_NODE = 263.3207
ARG_OF_PERICENTER = 72.4294
MEAN_ANOMALY   = 287.7159

EPHEMERIS_TYPE = 0
CLASSIFICATION_TYPE = U
NORAD_CAT_ID   = 67803
ELEMENT_SET_NO = 999
REV_AT_EPOCH   = 600
BSTAR          = .11432779E-2
MEAN_MOTION_DOT = .174381E-2
MEAN_MOTION_DDOT = 0

CCSDS_OMM_VERS = 2.0
CREATION_DATE  = 
ORIGINATOR     = 

OBJECT_NAME    = STARLINK-36792
OBJECT_ID      = 2026-032H
CENTER_NAME    = EARTH
REF_FRAME      = TEME
TIME_SYSTEM    = UTC
MEAN_ELEMENT_THEORY = SGP/SGP4

EPOCH          = 2026-03-17T10:27:01.070784
MEAN_MOTION    = 15.75241538
ECCENTRICITY   = .00015861
INCLINATION    = 97.2831
RA_OF_ASC_NODE = 263.3179
ARG_OF_PERICENTER = 84.7880
MEAN_ANOMALY   = 275.3567

EPHEMERIS_TYPE = 0
CLASSIFICATION_TYPE = U
NORAD_CAT_ID   = 67804
ELEMENT_SET_NO = 999
REV_AT_EPOCH   = 600
BSTAR          = .11180254E-2
MEAN_MOTION_DOT = .17038E-2
MEAN_MOTION_DDOT = 0

CCSDS_OMM_VERS = 2.0
CREATION_DATE  = 
ORIGINATOR     = 

OBJECT_NAME    = STARLINK-36782
OBJECT_ID      = 2026-032J
CENTER_NAME    = EARTH
REF_FRAME      = TEME
TIME_SYSTEM    = UTC
MEAN_ELEMENT_THEORY = SGP/SGP4

EPOCH          = 2026-03-17T11:22:55.481664
MEAN_MOTION    = 15.75220756
ECCENTRICITY   = .00009292
INCLINATION    = 97.2827
RA_OF_ASC_NODE = 263.4185
ARG_OF_PERICENTER = 0.4091
MEAN_ANOMALY   = 359.7175

EPHEMERIS_TYPE = 0
CLASSIFICATION_TYPE = U
NORAD_CAT_ID   = 67805
ELEMENT_SET_NO = 999
REV_AT_EPOCH   = 601
BSTAR          = .11641698E-2
MEAN_MOTION_DOT = .177403E-2
MEAN_MOTION_DDOT = 0

CCSDS_OMM_VERS = 2.0
CREATION_DATE  = 
ORIGINATOR     = 

OBJECT_NAME    = STARLINK-36389
OBJECT_ID      = 2026-032K
CENTER_NAME    = EARTH
REF_FRAME      = TEME
TIME_SYSTEM    = UTC
MEAN_ELEMENT_THEORY = SGP/SGP4

EPOCH          = 2026-03-17T11:42:13.946688
MEAN_MOTION    = 15.75206737
ECCENTRICITY   = .00016278
INCLINATION    = 97.2816
RA_OF_ASC_NODE = 263.3984
ARG_OF_PERICENTER = 65.9338
MEAN_ANOMALY   = 294.2097

EPHEMERIS_TYPE = 0
CLASSIFICATION_TYPE = U
NORAD_CAT_ID   = 67806
ELEMENT_SET_NO = 999
REV_AT_EPOCH   = 601
BSTAR          = .78156227E-3
MEAN_MOTION_DOT = .118158E-2
MEAN_MOTION_DDOT = 0

CCSDS_OMM_VERS = 2.0
CREATION_DATE  = 
ORIGINATOR     = 

OBJECT_NAME    = STARLINK-36382
OBJECT_ID      = 2026-032L
CENTER_NAME    = EARTH
REF_FRAME      = TEME
TIME_SYSTEM    = UTC
MEAN_ELEMENT_THEORY = SGP/SGP4

EPOCH          = 2026-03-17T11:39:11.126016
MEAN_MOTION    = 15.75210603
ECCENTRICITY   = .00019307
INCLINATION    = 97.2820
RA_OF_ASC_NODE = 263.4007
ARG_OF_PERICENTER = 79.9725
MEAN_ANOMALY   = 280.1758

EPHEMERIS_TYPE = 0
CLASSIFICATION_TYPE = U
NORAD_CAT_ID   = 67807
ELEMENT_SET_NO = 999
REV_AT_EPOCH   = 601
BSTAR          = .82404351E-3
MEAN_MOTION_DOT = .124707E-2
MEAN_MOTION_DDOT = 0

CCSDS_OMM_VERS = 2.0
CREATION_DATE  = 
ORIGINATOR     = 

OBJECT_NAME    = STARLINK-36811
OBJECT_ID      = 2026-032M
CENTER_NAME    = EARTH
REF_FRAME      = TEME
TIME_SYSTEM    = UTC
MEAN_ELEMENT_THEORY = SGP/SGP4

EPOCH          = 2026-03-17T11:24:57.930336
MEAN_MOTION    = 15.75185288
ECCENTRICITY   = .00009167
INCLINATION    = 97.2833
RA_OF_ASC_NODE = 263.4165
ARG_OF_PERICENTER = 358.4836
MEAN_ANOMALY   = 1.6426

EPHEMERIS_TYPE = 0
CLASSIFICATION_TYPE = U
NORAD_CAT_ID   = 67808
ELEMENT_SET_NO = 999
REV_AT_EPOCH   = 601
BSTAR          = .98029012E-3
MEAN_MOTION_DOT = .148627E-2
MEAN_MOTION_DDOT = 0

